ALOS (DAICHI)           
1 28931U 06002A   23362.55713083  .00002006  00000+0  38370-3 0  9990
2 28931  98.0158 314.6368 0001462  49.0028 311.1301 14.64921763955847
